start=new Date('2023-01-30T00:00:00.000Z').valueOf();
sats=[{"ECCENTRICITY":"0.00015080","CLASSIFICATION_TYPE":"U","EPHEMERIS_TYPE":"0","MEAN_ANOMALY":"259.1090","OBJECT_NAME":"STARLINK-4418","TLE_LINE1":"1 53678U 22105AG  23029.90871421  .00002756  00000-0  21906-3 0  9998","RCS_SIZE":"LARGE","OBJECT_TYPE":"PAYLOAD","MEAN_MOTION_DDOT":"0.0000000000000","COUNTRY_CODE":"US","MEAN_MOTION_DOT":"0.00002756","PERIOD":"95.919","MEAN_MOTION":"15.01267312","BSTAR":"0.00021906000000","GP_ID":"223959560","ELEMENT_SET_NO":"999","LAUNCH_DATE":"2022-08-31","NORAD_CAT_ID":"53678","REV_AT_EPOCH":"2298","SEMIMAJOR_AXIS":"6941.124","TLE_LINE2":"2 53678  97.6563 272.9502 0001508 101.0304 259.1090 15.01267312 22982","OBJECT_ID":"2022-105AG","EPOCH":"2023-01-29T21:48:32.907744","DECAY_DATE":null,"PERIAPSIS":"561.943","ARG_OF_PERICENTER":"101.0304","APOAPSIS":"564.036","INCLINATION":"97.6563","REF_FRAME":"TEME","FILE":"3765015","SITE":"AFWTR","CENTER_NAME":"EARTH","MEAN_ELEMENT_THEORY":"SGP4","TIME_SYSTEM":"UTC","RA_OF_ASC_NODE":"272.9502"},{"SITE":"AFWTR","FILE":"3765015","RA_OF_ASC_NODE":"272.9533","TIME_SYSTEM":"UTC","CENTER_NAME":"EARTH","MEAN_ELEMENT_THEORY":"SGP4","REF_FRAME":"TEME","INCLINATION":"97.6562","APOAPSIS":"564.064","DECAY_DATE":null,"ARG_OF_PERICENTER":"96.6152","PERIAPSIS":"561.948","TLE_LINE2":"2 53679  97.6562 272.9533 0001524  96.6152 263.5246 15.01261913 22987","OBJECT_ID":"2022-105AH","REV_AT_EPOCH":"2298","SEMIMAJOR_AXIS":"6941.141","NORAD_CAT_ID":"53679","LAUNCH_DATE":"2022-08-31","EPOCH":"2023-01-29T21:53:53.027520","BSTAR":"0.00006559600000","MEAN_MOTION":"15.01261913","ELEMENT_SET_NO":"999","GP_ID":"223960306","COUNTRY_CODE":"US","PERIOD":"95.919","MEAN_MOTION_DOT":"0.00000784","OBJECT_TYPE":"PAYLOAD","RCS_SIZE":"LARGE","MEAN_MOTION_DDOT":"0.0000000000000","ECCENTRICITY":"0.00015240","TLE_LINE1":"1 53679U 22105AH  23029.91241930  .00000784  00000-0  65596-4 0  9999","OBJECT_NAME":"STARLINK-4632","EPHEMERIS_TYPE":"0","MEAN_ANOMALY":"263.5246","CLASSIFICATION_TYPE":"U"},{"COUNTRY_CODE":"US","MEAN_MOTION_DOT":"0.00001637","PERIOD":"95.919","BSTAR":"0.00013201000000","MEAN_MOTION":"15.01264855","ELEMENT_SET_NO":"999","GP_ID":"223960058","ECCENTRICITY":"0.00013860","CLASSIFICATION_TYPE":"U","EPHEMERIS_TYPE":"0","MEAN_ANOMALY":"264.4114","OBJECT_NAME":"STARLINK-4630","TLE_LINE1":"1 53680U 22105AJ  23029.90501171  .00001637  00000-0  13201-3 0  9999","RCS_SIZE":"LARGE","OBJECT_TYPE":"PAYLOAD","MEAN_MOTION_DDOT":"0.0000000000000","APOAPSIS":"563.959","INCLINATION":"97.6564","REF_FRAME":"TEME","FILE":"3765015","SITE":"AFWTR","CENTER_NAME":"EARTH","TIME_SYSTEM":"UTC","MEAN_ELEMENT_THEORY":"SGP4","RA_OF_ASC_NODE":"272.9461","LAUNCH_DATE":"2022-08-31","NORAD_CAT_ID":"53680","REV_AT_EPOCH":"2298","SEMIMAJOR_AXIS":"6941.132","TLE_LINE2":"2 53680  97.6564 272.9461 0001386  95.7268 264.4114 15.01264855 22987","OBJECT_ID":"2022-105AJ","EPOCH":"2023-01-29T21:43:13.011744","DECAY_DATE":null,"PERIAPSIS":"562.035","ARG_OF_PERICENTER":"95.7268"},{"PERIOD":"95.919","MEAN_MOTION_DOT":"0.00004787","COUNTRY_CODE":"US","ELEMENT_SET_NO":"999","GP_ID":"223958815","BSTAR":"0.00037698000000","MEAN_MOTION":"15.01266412","OBJECT_NAME":"STARLINK-4424","TLE_LINE1":"1 53681U 22105AK  23029.90895280  .00004787  00000-0  37698-3 0  9992","CLASSIFICATION_TYPE":"U","EPHEMERIS_TYPE":"0","MEAN_ANOMALY":"302.7734","ECCENTRICITY":"0.00017360","MEAN_MOTION_DDOT":"0.0000000000000","OBJECT_TYPE":"PAYLOAD","RCS_SIZE":"LARGE","APOAPSIS":"564.197","INCLINATION":"97.6549","REF_FRAME":"TEME","TIME_SYSTEM":"UTC","CENTER_NAME":"EARTH","MEAN_ELEMENT_THEORY":"SGP4","RA_OF_ASC_NODE":"272.9462","SITE":"AFWTR","FILE":"3765015","EPOCH":"2023-01-29T21:48:53.521920","REV_AT_EPOCH":"2298","SEMIMAJOR_AXIS":"6941.127","OBJECT_ID":"2022-105AK","TLE_LINE2":"2 53681  97.6549 272.9462 0001736  57.3658 302.7734 15.01266412 22983","LAUNCH_DATE":"2022-08-31","NORAD_CAT_ID":"53681","ARG_OF_PERICENTER":"57.3658","PERIAPSIS":"561.787","DECAY_DATE":null},{"DECAY_DATE":null,"ARG_OF_PERICENTER":"91.5465","PERIAPSIS":"561.899","NORAD_CAT_ID":"53682","LAUNCH_DATE":"2022-08-31","TLE_LINE2":"2 53682  97.6566 272.6806 0001570  91.5465 268.5939 15.01267361 22940","OBJECT_ID":"2022-105AL","REV_AT_EPOCH":"2294","SEMIMAJOR_AXIS":"6941.124","EPOCH":"2023-01-29T15:14:19.339584","FILE":"3765015","SITE":"AFWTR","RA_OF_ASC_NODE":"272.6806","CENTER_NAME":"EARTH","TIME_SYSTEM":"UTC","MEAN_ELEMENT_THEORY":"SGP4","REF_FRAME":"TEME","INCLINATION":"97.6566","APOAPSIS":"564.079","RCS_SIZE":"LARGE","OBJECT_TYPE":"PAYLOAD","MEAN_MOTION_DDOT":"0.0000000000000","ECCENTRICITY":"0.00015700","MEAN_ANOMALY":"268.5939","EPHEMERIS_TYPE":"0","CLASSIFICATION_TYPE":"U","TLE_LINE1":"1 53682U 22105AL  23029.63494606  .00006216  00000-0  48805-3 0  9991","OBJECT_NAME":"STARLINK-4438","MEAN_MOTION":"15.01267361","BSTAR":"0.00048805000000","ELEMENT_SET_NO":"999","GP_ID":"223959064","COUNTRY_CODE":"US","MEAN_MOTION_DOT":"0.00006216","PERIOD":"95.919"},{"DECAY_DATE":null,"ARG_OF_PERICENTER":"98.7671","PERIAPSIS":"562.036","LAUNCH_DATE":"2022-08-31","NORAD_CAT_ID":"53683","REV_AT_EPOCH":"2298","SEMIMAJOR_AXIS":"6941.129","TLE_LINE2":"2 53683  97.6554 272.9501 0001381  98.7671 261.3710 15.01265728 22988","OBJECT_ID":"2022-105AM","EPOCH":"2023-01-29T21:45:53.145504","FILE":"3765015","SITE":"AFWTR","TIME_SYSTEM":"UTC","CENTER_NAME":"EARTH","MEAN_ELEMENT_THEORY":"SGP4","RA_OF_ASC_NODE":"272.9501","APOAPSIS":"563.953","REF_FRAME":"TEME","INCLINATION":"97.6554","RCS_SIZE":"LARGE","OBJECT_TYPE":"PAYLOAD","MEAN_MOTION_DDOT":"0.0000000000000","ECCENTRICITY":"0.00013810","CLASSIFICATION_TYPE":"U","MEAN_ANOMALY":"261.3710","EPHEMERIS_TYPE":"0","OBJECT_NAME":"STARLINK-4625","TLE_LINE1":"1 53683U 22105AM  23029.90686511  .00002731  00000-0  21709-3 0  9992","BSTAR":"0.00021709000000","MEAN_MOTION":"15.01265728","GP_ID":"223959810","ELEMENT_SET_NO":"999","COUNTRY_CODE":"US","MEAN_MOTION_DOT":"0.00002731","PERIOD":"95.919"},{"BSTAR":"0.00005378500000","MEAN_MOTION":"15.01265437","ELEMENT_SET_NO":"999","GP_ID":"223960555","COUNTRY_CODE":"US","PERIOD":"95.919","MEAN_MOTION_DOT":"0.00000632","OBJECT_TYPE":"PAYLOAD","RCS_SIZE":"LARGE","MEAN_MOTION_DDOT":"0.0000000000000","ECCENTRICITY":"0.00024980","OBJECT_NAME":"STARLINK-4624","TLE_LINE1":"1 53684U 22105AN  23029.95339736  .00000632  00000-0  53785-4 0  9990","CLASSIFICATION_TYPE":"U","MEAN_ANOMALY":"264.6301","EPHEMERIS_TYPE":"0","SITE":"AFWTR","FILE":"3765015","TIME_SYSTEM":"UTC","CENTER_NAME":"EARTH","MEAN_ELEMENT_THEORY":"SGP4","RA_OF_ASC_NODE":"273.0102","APOAPSIS":"564.729","REF_FRAME":"TEME","INCLINATION":"97.6576","DECAY_DATE":null,"ARG_OF_PERICENTER":"95.5208","PERIAPSIS":"561.261","REV_AT_EPOCH":"2298","SEMIMAJOR_AXIS":"6941.130","TLE_LINE2":"2 53684  97.6576 273.0102 0002498  95.5208 264.6301 15.01265437 22982","OBJECT_ID":"2022-105AN","LAUNCH_DATE":"2022-08-31","NORAD_CAT_ID":"53684","EPOCH":"2023-01-29T22:52:53.531904"},{"MEAN_MOTION_DDOT":"0.0000000000000","OBJECT_TYPE":"PAYLOAD","RCS_SIZE":"LARGE","OBJECT_NAME":"STARLINK-4626","TLE_LINE1":"1 53685U 22105AP  23029.90315984  .00002955  00000-0  23452-3 0  9992","CLASSIFICATION_TYPE":"U","MEAN_ANOMALY":"261.2213","EPHEMERIS_TYPE":"0","ECCENTRICITY":"0.00014600","GP_ID":"223959313","ELEMENT_SET_NO":"999","MEAN_MOTION":"15.01266943","BSTAR":"0.00023452000000","PERIOD":"95.919","MEAN_MOTION_DOT":"0.00002955","COUNTRY_CODE":"US","PERIAPSIS":"561.977","ARG_OF_PERICENTER":"98.9176","DECAY_DATE":null,"EPOCH":"2023-01-29T21:40:33.010176","REV_AT_EPOCH":"2298","SEMIMAJOR_AXIS":"6941.125","TLE_LINE2":"2 53685  97.6562 272.9452 0001460  98.9176 261.2213 15.01266943 22981","OBJECT_ID":"2022-105AP","LAUNCH_DATE":"2022-08-31","NORAD_CAT_ID":"53685","TIME_SYSTEM":"UTC","CENTER_NAME":"EARTH","MEAN_ELEMENT_THEORY":"SGP4","RA_OF_ASC_NODE":"272.9452","SITE":"AFWTR","FILE":"3765015","APOAPSIS":"564.004","REF_FRAME":"TEME","INCLINATION":"97.6562"},{"EPOCH":"2023-01-29T15:11:18.453408","LAUNCH_DATE":"2022-08-31","NORAD_CAT_ID":"53686","REV_AT_EPOCH":"2294","SEMIMAJOR_AXIS":"6941.147","TLE_LINE2":"2 53686  97.6568 272.6776 0001526  95.2235 264.9163 15.01259855 22947","OBJECT_ID":"2022-105AQ","PERIAPSIS":"561.953","ARG_OF_PERICENTER":"95.2235","DECAY_DATE":null,"APOAPSIS":"564.072","INCLINATION":"97.6568","REF_FRAME":"TEME","CENTER_NAME":"EARTH","TIME_SYSTEM":"UTC","MEAN_ELEMENT_THEORY":"SGP4","RA_OF_ASC_NODE":"272.6776","FILE":"3765015","SITE":"AFWTR","CLASSIFICATION_TYPE":"U","EPHEMERIS_TYPE":"0","MEAN_ANOMALY":"264.9163","OBJECT_NAME":"STARLINK-4467","TLE_LINE1":"1 53686U 22105AQ  23029.63285247  .00002120  00000-0  16956-3 0  9996","ECCENTRICITY":"0.00015260","MEAN_MOTION_DDOT":"0.0000000000000","RCS_SIZE":"LARGE","OBJECT_TYPE":"PAYLOAD","MEAN_MOTION_DOT":"0.00002120","PERIOD":"95.919","COUNTRY_CODE":"US","GP_ID":"223959561","ELEMENT_SET_NO":"999","BSTAR":"0.00016956000000","MEAN_MOTION":"15.01259855"},{"NORAD_CAT_ID":"53687","LAUNCH_DATE":"2022-08-31","TLE_LINE2":"2 53687  97.6565 272.6796 0001732  87.6926 272.4496 15.01259864 22941","OBJECT_ID":"2022-105AR","SEMIMAJOR_AXIS":"6941.147","REV_AT_EPOCH":"2294","EPOCH":"2023-01-29T15:13:58.429056","DECAY_DATE":null,"ARG_OF_PERICENTER":"87.6926","PERIAPSIS":"561.810","REF_FRAME":"TEME","INCLINATION":"97.6565","APOAPSIS":"564.214","FILE":"3765015","SITE":"AFWTR","RA_OF_ASC_NODE":"272.6796","MEAN_ELEMENT_THEORY":"SGP4","TIME_SYSTEM":"UTC","CENTER_NAME":"EARTH","ECCENTRICITY":"0.00017320","MEAN_ANOMALY":"272.4496","EPHEMERIS_TYPE":"0","CLASSIFICATION_TYPE":"U","TLE_LINE1":"1 53687U 22105AR  23029.63470404  .00001216  00000-0  99224-4 0  9993","OBJECT_NAME":"STARLINK-4569","RCS_SIZE":"LARGE","OBJECT_TYPE":"PAYLOAD","MEAN_MOTION_DDOT":"0.0000000000000","COUNTRY_CODE":"US","MEAN_MOTION_DOT":"0.00001216","PERIOD":"95.919","BSTAR":"0.00009922400000","MEAN_MOTION":"15.01259864","GP_ID":"223960307","ELEMENT_SET_NO":"999"}];
